STARLINK-3555           
1 51863U 22022M   26035.52011508 -.00024125  00000+0 -15047-2 0  9993
2 51863  53.2177 158.0260 0001891 115.1650 244.9538 15.08794025218108
STARLINK-3548           
1 51864U 22022N   26035.52380089  .00000544  00000+0  52293-4 0  9990
2 51864  53.2182 157.9340 0001622  82.5013 277.6163 15.08840738218159
STARLINK-3503           
1 51865U 22022P   26035.51277318 -.00000248  00000+0  24843-5 0  9993
2 51865  53.2183 158.0599 0001309  94.4379 265.6763 15.08836117218102
STARLINK-3553           
1 51866U 22022Q   26035.51003437  .00000285  00000+0  36002-4 0  9992
2 51866  53.2164 157.9273 0001153  84.6851 275.4273 15.08836557218105
STARLINK-3590           
1 51867U 22022R   26035.50909418 -.00000315  00000+0 -17200-5 0  9992
2 51867  53.2176 158.0776 0001361  83.6830 276.4317 15.08839096218107
STARLINK-3578           
1 51868U 22022S   26035.51645427  .00000115  00000+0  25311-4 0  9998
2 51868  53.2177 158.0433 0001429  99.0324 261.0830 15.08834133218100
STARLINK-3588           
1 51869U 22022T   26035.49805213  .00000257  00000+0  34207-4 0  9998
2 51869  53.2169 158.1227 0001164  94.6591 265.4534 15.08835261218109
STARLINK-3591           
1 51870U 22022U   26035.50541678 -.00000099  00000+0  11888-4 0  9999
2 51870  53.2184 158.0940 0001265  98.9883 261.1252 15.08834647218154
STARLINK-3567           
1 51871U 22022V   26035.49436927  .00000186  00000+0  29766-4 0  9998
2 51871  53.2168 158.1396 0001192  86.0883 274.0246 15.08839945218219
STARLINK-3554           
1 51872U 22022W   26035.50173427  .00000415  00000+0  44164-4 0  9998
2 51872  53.2186 158.1108 0001204  96.7263 263.3866 15.08832373218100
STARLINK-3582           
1 51873U 22022X   26034.54069488  .00046852  00000+0  24946-2 0  9992
2 51873  53.2134 160.1634 0003237 133.6960 226.4303 15.14790689217996
STARLINK-3574           
1 51874U 22022Y   26035.49069347 -.00001498  00000+0 -76055-4 0  9991
2 51874  53.2168 158.1553 0001181 106.0002 254.1121 15.08828244218098
STARLINK-3585           
1 51875U 22022Z   26034.54123700  .00000813  00000+0  69148-4 0  9994
2 51875  53.2172 162.3331 0001279  90.1271 269.9868 15.08840557217962
STARLINK-3583           
1 51876U 22022AA  26035.48701038  .00000412  00000+0  43956-4 0  9999
2 51876  53.2184 158.1733 0001096  75.9864 284.1250 15.08837674218108
STARLINK-3556           
1 51877U 22022AB  26035.46951640  .00002284  00000+0  16149-3 0  9996
2 51877  53.2179 148.2504 0001119  85.3405 274.7715 15.08857542218232
STARLINK-3575           
1 51878U 22022AC  26035.47965225 -.00000270  00000+0  11132-5 0  9995
2 51878  53.2164 158.2066 0000993  91.1651 268.9455 15.08838438218103
STARLINK-3572           
1 51879U 22022AD  26035.46217505 -.00000238  00000+0  31150-5 0  9992
2 51879  53.2176 148.2847 0001273  87.2936 272.8202 15.08834314218234
