[{"OBJECT_NAME":"STARLINK-3555","OBJECT_ID":"2022-022M","EPOCH":"2026-02-04T12:28:57.942912","MEAN_MOTION":15.08794025,"ECCENTRICITY":0.0001891,"INCLINATION":53.2177,"RA_OF_ASC_NODE":158.026,"ARG_OF_PERICENTER":115.165,"MEAN_ANOMALY":244.9538,"EPHEMERIS_TYPE":0,"CLASSIFICATION_TYPE":"U","NORAD_CAT_ID":51863,"ELEMENT_SET_NO":999,"REV_AT_EPOCH":21810,"BSTAR":-0.0015047,"MEAN_MOTION_DOT":-0.00024125,"MEAN_MOTION_DDOT":0},{"OBJECT_NAME":"STARLINK-3548","OBJECT_ID":"2022-022N","EPOCH":"2026-02-04T12:34:16.396896","MEAN_MOTION":15.08840738,"ECCENTRICITY":0.0001622,"INCLINATION":53.2182,"RA_OF_ASC_NODE":157.934,"ARG_OF_PERICENTER":82.5013,"MEAN_ANOMALY":277.6163,"EPHEMERIS_TYPE":0,"CLASSIFICATION_TYPE":"U","NORAD_CAT_ID":51864,"ELEMENT_SET_NO":999,"REV_AT_EPOCH":21815,"BSTAR":5.2293e-5,"MEAN_MOTION_DOT":5.44e-6,"MEAN_MOTION_DDOT":0},{"OBJECT_NAME":"STARLINK-3503","OBJECT_ID":"2022-022P","EPOCH":"2026-02-04T12:18:23.602752","MEAN_MOTION":15.08836117,"ECCENTRICITY":0.0001309,"INCLINATION":53.2183,"RA_OF_ASC_NODE":158.0599,"ARG_OF_PERICENTER":94.4379,"MEAN_ANOMALY":265.6763,"EPHEMERIS_TYPE":0,"CLASSIFICATION_TYPE":"U","NORAD_CAT_ID":51865,"ELEMENT_SET_NO":999,"REV_AT_EPOCH":21810,"BSTAR":2.4843e-6,"MEAN_MOTION_DOT":-2.48e-6,"MEAN_MOTION_DDOT":0},{"OBJECT_NAME":"STARLINK-3553","OBJECT_ID":"2022-022Q","EPOCH":"2026-02-04T12:14:26.969568","MEAN_MOTION":15.08836557,"ECCENTRICITY":0.0001153,"INCLINATION":53.2164,"RA_OF_ASC_NODE":157.9273,"ARG_OF_PERICENTER":84.6851,"MEAN_ANOMALY":275.4273,"EPHEMERIS_TYPE":0,"CLASSIFICATION_TYPE":"U","NORAD_CAT_ID":51866,"ELEMENT_SET_NO":999,"REV_AT_EPOCH":21810,"BSTAR":3.6002e-5,"MEAN_MOTION_DOT":2.85e-6,"MEAN_MOTION_DDOT":0},{"OBJECT_NAME":"STARLINK-3590","OBJECT_ID":"2022-022R","EPOCH":"2026-02-04T12:13:05.737152","MEAN_MOTION":15.08839096,"ECCENTRICITY":0.0001361,"INCLINATION":53.2176,"RA_OF_ASC_NODE":158.0776,"ARG_OF_PERICENTER":83.683,"MEAN_ANOMALY":276.4317,"EPHEMERIS_TYPE":0,"CLASSIFICATION_TYPE":"U","NORAD_CAT_ID":51867,"ELEMENT_SET_NO":999,"REV_AT_EPOCH":21810,"BSTAR":-1.72e-6,"MEAN_MOTION_DOT":-3.15e-6,"MEAN_MOTION_DDOT":0},{"OBJECT_NAME":"STARLINK-3578","OBJECT_ID":"2022-022S","EPOCH":"2026-02-04T12:23:41.648928","MEAN_MOTION":15.08834133,"ECCENTRICITY":0.0001429,"INCLINATION":53.2177,"RA_OF_ASC_NODE":158.0433,"ARG_OF_PERICENTER":99.0324,"MEAN_ANOMALY":261.083,"EPHEMERIS_TYPE":0,"CLASSIFICATION_TYPE":"U","NORAD_CAT_ID":51868,"ELEMENT_SET_NO":999,"REV_AT_EPOCH":21810,"BSTAR":2.5311e-5,"MEAN_MOTION_DOT":1.15e-6,"MEAN_MOTION_DDOT":0},{"OBJECT_NAME":"STARLINK-3588","OBJECT_ID":"2022-022T","EPOCH":"2026-02-04T11:57:11.704032","MEAN_MOTION":15.08835261,"ECCENTRICITY":0.0001164,"INCLINATION":53.2169,"RA_OF_ASC_NODE":158.1227,"ARG_OF_PERICENTER":94.6591,"MEAN_ANOMALY":265.4534,"EPHEMERIS_TYPE":0,"CLASSIFICATION_TYPE":"U","NORAD_CAT_ID":51869,"ELEMENT_SET_NO":999,"REV_AT_EPOCH":21810,"BSTAR":3.4207e-5,"MEAN_MOTION_DOT":2.57e-6,"MEAN_MOTION_DDOT":0},{"OBJECT_NAME":"STARLINK-3591","OBJECT_ID":"2022-022U","EPOCH":"2026-02-04T12:07:48.009792","MEAN_MOTION":15.08834647,"ECCENTRICITY":0.0001265,"INCLINATION":53.2184,"RA_OF_ASC_NODE":158.094,"ARG_OF_PERICENTER":98.9883,"MEAN_ANOMALY":261.1252,"EPHEMERIS_TYPE":0,"CLASSIFICATION_TYPE":"U","NORAD_CAT_ID":51870,"ELEMENT_SET_NO":999,"REV_AT_EPOCH":21815,"BSTAR":1.1888e-5,"MEAN_MOTION_DOT":-9.9e-7,"MEAN_MOTION_DDOT":0},{"OBJECT_NAME":"STARLINK-3567","OBJECT_ID":"2022-022V","EPOCH":"2026-02-04T11:51:53.504928","MEAN_MOTION":15.08839945,"ECCENTRICITY":0.0001192,"INCLINATION":53.2168,"RA_OF_ASC_NODE":158.1396,"ARG_OF_PERICENTER":86.0883,"MEAN_ANOMALY":274.0246,"EPHEMERIS_TYPE":0,"CLASSIFICATION_TYPE":"U","NORAD_CAT_ID":51871,"ELEMENT_SET_NO":999,"REV_AT_EPOCH":21821,"BSTAR":2.9766e-5,"MEAN_MOTION_DOT":1.86e-6,"MEAN_MOTION_DDOT":0},{"OBJECT_NAME":"STARLINK-3554","OBJECT_ID":"2022-022W","EPOCH":"2026-02-04T12:02:29.840928","MEAN_MOTION":15.08832373,"ECCENTRICITY":0.0001204,"INCLINATION":53.2186,"RA_OF_ASC_NODE":158.1108,"ARG_OF_PERICENTER":96.7263,"MEAN_ANOMALY":263.3866,"EPHEMERIS_TYPE":0,"CLASSIFICATION_TYPE":"U","NORAD_CAT_ID":51872,"ELEMENT_SET_NO":999,"REV_AT_EPOCH":21810,"BSTAR":4.4164e-5,"MEAN_MOTION_DOT":4.15e-6,"MEAN_MOTION_DDOT":0},{"OBJECT_NAME":"STARLINK-3582","OBJECT_ID":"2022-022X","EPOCH":"2026-02-03T12:58:36.037632","MEAN_MOTION":15.14790689,"ECCENTRICITY":0.00032375,"INCLINATION":53.2134,"RA_OF_ASC_NODE":160.1634,"ARG_OF_PERICENTER":133.696,"MEAN_ANOMALY":226.4303,"EPHEMERIS_TYPE":0,"CLASSIFICATION_TYPE":"U","NORAD_CAT_ID":51873,"ELEMENT_SET_NO":999,"REV_AT_EPOCH":21799,"BSTAR":0.0024945514,"MEAN_MOTION_DOT":0.00046852,"MEAN_MOTION_DDOT":0},{"OBJECT_NAME":"STARLINK-3574","OBJECT_ID":"2022-022Y","EPOCH":"2026-02-04T11:46:35.915808","MEAN_MOTION":15.08828244,"ECCENTRICITY":0.0001181,"INCLINATION":53.2168,"RA_OF_ASC_NODE":158.1553,"ARG_OF_PERICENTER":106.0002,"MEAN_ANOMALY":254.1121,"EPHEMERIS_TYPE":0,"CLASSIFICATION_TYPE":"U","NORAD_CAT_ID":51874,"ELEMENT_SET_NO":999,"REV_AT_EPOCH":21809,"BSTAR":-7.6055e-5,"MEAN_MOTION_DOT":-1.498e-5,"MEAN_MOTION_DDOT":0},{"OBJECT_NAME":"STARLINK-3585","OBJECT_ID":"2022-022Z","EPOCH":"2026-02-03T12:59:22.876800","MEAN_MOTION":15.08840557,"ECCENTRICITY":0.00012792,"INCLINATION":53.2172,"RA_OF_ASC_NODE":162.3331,"ARG_OF_PERICENTER":90.1271,"MEAN_ANOMALY":269.9868,"EPHEMERIS_TYPE":0,"CLASSIFICATION_TYPE":"U","NORAD_CAT_ID":51875,"ELEMENT_SET_NO":999,"REV_AT_EPOCH":21796,"BSTAR":6.9148273e-5,"MEAN_MOTION_DOT":8.13e-6,"MEAN_MOTION_DDOT":0},{"OBJECT_NAME":"STARLINK-3583","OBJECT_ID":"2022-022AA","EPOCH":"2026-02-04T11:41:17.696832","MEAN_MOTION":15.08837674,"ECCENTRICITY":0.0001096,"INCLINATION":53.2184,"RA_OF_ASC_NODE":158.1733,"ARG_OF_PERICENTER":75.9864,"MEAN_ANOMALY":284.125,"EPHEMERIS_TYPE":0,"CLASSIFICATION_TYPE":"U","NORAD_CAT_ID":51876,"ELEMENT_SET_NO":999,"REV_AT_EPOCH":21810,"BSTAR":4.3956e-5,"MEAN_MOTION_DOT":4.12e-6,"MEAN_MOTION_DDOT":0},{"OBJECT_NAME":"STARLINK-3556","OBJECT_ID":"2022-022AB","EPOCH":"2026-02-04T11:16:06.216960","MEAN_MOTION":15.08857542,"ECCENTRICITY":0.0001119,"INCLINATION":53.2179,"RA_OF_ASC_NODE":148.2504,"ARG_OF_PERICENTER":85.3405,"MEAN_ANOMALY":274.7715,"EPHEMERIS_TYPE":0,"CLASSIFICATION_TYPE":"U","NORAD_CAT_ID":51877,"ELEMENT_SET_NO":999,"REV_AT_EPOCH":21823,"BSTAR":0.00016149,"MEAN_MOTION_DOT":2.284e-5,"MEAN_MOTION_DDOT":0},{"OBJECT_NAME":"STARLINK-3575","OBJECT_ID":"2022-022AC","EPOCH":"2026-02-04T11:30:41.954400","MEAN_MOTION":15.08838438,"ECCENTRICITY":9.93e-5,"INCLINATION":53.2164,"RA_OF_ASC_NODE":158.2066,"ARG_OF_PERICENTER":91.1651,"MEAN_ANOMALY":268.9455,"EPHEMERIS_TYPE":0,"CLASSIFICATION_TYPE":"U","NORAD_CAT_ID":51878,"ELEMENT_SET_NO":999,"REV_AT_EPOCH":21810,"BSTAR":1.1132e-6,"MEAN_MOTION_DOT":-2.7e-6,"MEAN_MOTION_DDOT":0},{"OBJECT_NAME":"STARLINK-3572","OBJECT_ID":"2022-022AD","EPOCH":"2026-02-04T11:05:31.924320","MEAN_MOTION":15.08834314,"ECCENTRICITY":0.0001273,"INCLINATION":53.2176,"RA_OF_ASC_NODE":148.2847,"ARG_OF_PERICENTER":87.2936,"MEAN_ANOMALY":272.8202,"EPHEMERIS_TYPE":0,"CLASSIFICATION_TYPE":"U","NORAD_CAT_ID":51879,"ELEMENT_SET_NO":999,"REV_AT_EPOCH":21823,"BSTAR":3.115e-6,"MEAN_MOTION_DOT":-2.38e-6,"MEAN_MOTION_DDOT":0}]
